[{"OBJECT_NAME":"HAWK-2A","OBJECT_ID":"2021-006CW","EPOCH":"2026-03-09T16:18:25.817472","MEAN_MOTION":15.33304498,"ECCENTRICITY":0.00064498,"INCLINATION":97.2459,"RA_OF_ASC_NODE":115.6184,"ARG_OF_PERICENTER":187.1463,"MEAN_ANOMALY":172.9689,"EPHEMERIS_TYPE":0,"CLASSIFICATION_TYPE":"U","NORAD_CAT_ID":47505,"ELEMENT_SET_NO":999,"REV_AT_EPOCH":28424,"BSTAR":0.0002543136,"MEAN_MOTION_DOT":8.113e-5,"MEAN_MOTION_DDOT":0},{"OBJECT_NAME":"STARLINK-35686","OBJECT_ID":"2025-257AD","EPOCH":"2026-03-09T16:22:18.087456","MEAN_MOTION":15.30206182,"ECCENTRICITY":4.482e-5,"INCLINATION":53.1594,"RA_OF_ASC_NODE":216.9578,"ARG_OF_PERICENTER":125.3337,"MEAN_ANOMALY":234.7706,"EPHEMERIS_TYPE":0,"CLASSIFICATION_TYPE":"U","NORAD_CAT_ID":66407,"ELEMENT_SET_NO":999,"REV_AT_EPOCH":1973,"BSTAR":0.00084136399,"MEAN_MOTION_DOT":0.00024647,"MEAN_MOTION_DDOT":0}]
