HAWK-2A                 
1 47505U 21006CW  26068.67946547  .00008113  00000+0  25431-3 0  9990
2 47505  97.2459 115.6184 0006450 187.1463 172.9689 15.33304498284242
STARLINK-35686          
1 66407U 25257AD  26068.68215379  .00024647  00000+0  84136-3 0  9994
2 66407  53.1594 216.9578 0000448 125.3337 234.7706 15.30206182 19737
